[{"OBJECT_NAME":"STARLINK-35141","OBJECT_ID":"2025-210Y","EPOCH":"2026-03-09T22:18:32.111712","MEAN_MOTION":15.30167474,"ECCENTRICITY":5.351e-5,"INCLINATION":53.1589,"RA_OF_ASC_NODE":306.2563,"ARG_OF_PERICENTER":70.3373,"MEAN_ANOMALY":289.7685,"EPHEMERIS_TYPE":0,"CLASSIFICATION_TYPE":"U","NORAD_CAT_ID":65644,"ELEMENT_SET_NO":999,"REV_AT_EPOCH":2776,"BSTAR":0.0015141232,"MEAN_MOTION_DOT":0.0004471,"MEAN_MOTION_DDOT":0},{"OBJECT_NAME":"OBJECT BC","OBJECT_ID":"2025-313BC","EPOCH":"2026-03-09T04:33:08.504064","MEAN_MOTION":15.29126358,"ECCENTRICITY":0.00084789,"INCLINATION":97.3985,"RA_OF_ASC_NODE":144.811,"ARG_OF_PERICENTER":328.9209,"MEAN_ANOMALY":31.1528,"EPHEMERIS_TYPE":0,"CLASSIFICATION_TYPE":"U","NORAD_CAT_ID":67298,"ELEMENT_SET_NO":999,"REV_AT_EPOCH":789,"BSTAR":0.0026410397,"MEAN_MOTION_DOT":0.00075331,"MEAN_MOTION_DDOT":0}]
